OBJECT_NAME,OBJECT_ID,EPOCH,MEAN_MOTION,ECCENTRICITY,INCLINATION,RA_OF_ASC_NODE,ARG_OF_PERICENTER,MEAN_ANOMALY,EPHEMERIS_TYPE,CLASSIFICATION_TYPE,NORAD_CAT_ID,ELEMENT_SET_NO,REV_AT_EPOCH,BSTAR,MEAN_MOTION_DOT,MEAN_MOTION_DDOT
DUBAISAT-1,2009-041B,2026-06-12T06:33:06.198624,14.75116057,.00117411,98.0046,296.5849,87.6859,272.5694,0,U,35682,999,90437,.1111437E-3,.699E-5,0
OCEANSAT-2,2009-051A,2026-06-12T06:24:31.215744,13.99664794,.00148471,98.2324,150.6092,250.9803,108.9756,0,U,35931,999,87864,.2218144E-4,-.5E-7,0
WORLDVIEW-2 (WV-2),2009-055A,2026-06-12T07:01:35.499072,14.37898034,.00034313,98.4736,236.8097,225.2791,134.8117,0,U,35946,999,87494,.4694981E-4,.98E-6,0
SMOS,2009-059A,2026-06-12T06:07:41.086560,14.39770071,.00013245,98.4424,350.6626,89.5123,270.6217,0,U,36036,999,87274,.89813656E-4,.238E-5,0
YAOGAN-7,2009-069A,2026-06-12T06:46:15.174912,14.78005257,.00258198,98.0079,49.1793,56.8914,303.4770,0,U,36110,999,88890,.73585398E-4,.481E-5,0
TANDEM-X,2010-030A,2026-06-09T06:54:02.839104,15.19149708,.00019024,97.4454,168.1075,90.0350,270.1102,0,U,36605,999,88544,.40127109E-4,.776E-5,0
CARTOSAT-2B,2010-035A,2026-06-12T07:58:14.063808,14.78655025,.00107711,97.9960,213.9128,199.9493,160.1299,0,U,36795,999,85913,.57129261E-4,.366E-5,0
YAOGAN-10,2010-038A,2026-06-12T07:28:21.235296,14.85334344,.00016793,97.8983,186.7545,90.0750,38.4995,0,U,36834,999,85648,.20581074E-3,.1716E-4,0
COSMO-SKYMED 4,2010-060A,2026-06-12T07:30:38.462688,14.82147357,.00013886,97.8889,346.9836,81.1306,279.0065,0,U,37216,999,84384,-.9841645E-5,-.131E-5,0
RESOURCESAT-2,2011-015A,2026-06-12T05:34:57.172224,14.21605370,.00101285,98.7644,230.7084,271.4774,88.5243,0,U,37387,999,78547,.42953092E-4,.5E-6,0
HAIYANG-2A,2011-043A,2026-06-12T07:21:35.971776,13.74458919,.00061962,99.3395,166.0903,100.2780,259.9068,0,U,37781,999,74598,.19642175E-3,.142E-5,0
RASAT,2011-044D,2026-06-12T06:35:43.658304,14.68161803,.00198436,98.0570,254.7465,204.7031,239.9333,0,U,37791,999,79246,.74918084E-4,.383E-5,0
SRMSAT,2011-058D,2026-06-11T12:22:46.149888,14.11574372,.0011909,19.9715,93.7945,141.4141,27.1536,0,U,37841,999,75701,.48954E-4,.355E-5,0
PLEIADES 1A,2011-076F,2026-06-12T07:50:24.084960,14.58567408,.00015871,98.1976,238.4946,98.0270,339.9698,0,U,38012,999,77128,.21835656E-4,.56E-6,0
ZIYUAN 1-02C (ZY 1-02C),2011-079A,2026-06-12T06:43:28.672608,14.38210316,.00057952,98.4075,230.6911,333.2744,114.5575,0,U,38038,999,75850,.69528276E-4,.168E-5,0
ARIRANG-3 (KOMPSAT-3),2012-025B,2026-06-12T07:27:49.766688,14.62202224,.00064943,98.1176,120.8551,121.7410,238.4425,0,U,38338,999,75063,.901181E-4,.407E-5,0
EXACTVIEW-1 (ADS-1B),2012-039C,2026-06-12T06:07:54.307488,14.24983227,.00108978,98.9772,280.5344,180.3666,179.7506,0,U,38709,999,72200,.62041415E-4,.99E-6,0
SPOT 6,2012-047A,2026-06-12T06:12:17.354016,14.58559751,.00014323,98.2121,230.6249,92.2870,267.8493,0,U,38755,999,73233,.34884412E-4,.116E-5,0
PLEIADES 1B,2012-068A,2026-06-12T06:39:31.063968,14.58557264,.00016172,98.1946,238.3964,94.5524,265.5860,0,U,39019,999,72013,.31317668E-4,.1E-5,0
GOKTURK 2,2012-073A,2026-06-12T06:23:07.816416,14.75538948,.00017845,97.6828,0.9446,58.0355,302.1029,0,U,39030,999,72378,.10836578E-3,.691E-5,0
LANDSAT 8,2013-008A,2026-06-12T05:13:38.475552,14.57091454,.00013783,98.2302,233.4118,93.2241,266.9115,0,U,39084,999,69717,.86044286E-4,.342E-5,0
SARAL,2013-009A,2026-06-12T07:01:05.451744,14.32854746,.00009654,98.5556,349.9217,336.8817,23.2323,0,U,39086,999,69490,.45954073E-4,.82E-6,0
GAOFEN-1,2013-018A,2026-06-12T07:39:47.285856,14.76530952,.00157377,97.9097,235.4858,283.6283,76.3174,0,U,39150,999,70752,.10927267E-4,.25E-6,0
VNREDSAT 1,2013-021B,2026-06-12T05:44:27.439872,14.64851298,.00016786,97.9086,216.8454,88.7395,271.4001,0,U,39160,999,69956,.72495849E-4,.342E-5,0
ARIRANG-5 (KOMPSAT-5),2013-042A,2026-06-12T07:27:41.908608,15.04478336,.00049242,97.6216,350.0805,133.2808,226.8830,0,U,39227,999,70312,.84910503E-4,.1127E-4,0
SKYSAT-A,2013-066C,2026-06-12T02:22:00.713568,15.12947558,.00205299,97.3820,212.6576,335.9867,24.0405,0,U,39418,999,68771,.15423868E-3,.2667E-4,0
DUBAISAT-2,2013-066D,2026-06-12T05:36:43.358688,15.10148237,.00127737,97.4563,153.5074,55.9002,304.3438,0,U,39419,999,68564,.23218654E-3,.3732E-4,0
GPM-CORE,2014-009C,2026-06-12T06:55:21.115776,15.44465202,.00120852,64.9720,324.5326,249.6859,110.2983,0,U,39574,999,69705,.26948531E-3,.12346E-3,0
SENTINEL-1A,2014-016A,2026-06-12T07:02:13.443360,14.59200370,.00014455,98.1781,170.8972,81.5278,278.6086,0,U,39634,999,64930,.14632669E-3,.644E-5,0
KAZEOSAT 1,2014-024A,2026-06-12T07:17:05.570880,14.42077790,.00014247,98.3206,235.8720,75.6267,284.5081,0,U,39731,999,63785,.17214966E-4,.14E-6,0
