DUBAISAT-1              
1 35682U 09041B   26163.27298841  .00000699  00000+0  11114-3 0  9991
2 35682  98.0046 296.5849 0011741  87.6859 272.5694 14.75116057904378
OCEANSAT-2              
1 35931U 09051A   26163.26702796 -.00000005  00000+0  22181-4 0  9996
2 35931  98.2324 150.6092 0014847 250.9803 108.9756 13.99664794878642
WORLDVIEW-2 (WV-2)      
1 35946U 09055A   26163.29277198  .00000098  00000+0  46950-4 0  9993
2 35946  98.4736 236.8097 0003431 225.2791 134.8117 14.37898034874944
SMOS                    
1 36036U 09059A   26163.25533665  .00000238  00000+0  89814-4 0  9990
2 36036  98.4424 350.6626 0001324  89.5123 270.6217 14.39770071872749
YAOGAN-7                
1 36110U 09069A   26163.28212008  .00000481  00000+0  73585-4 0  9990
2 36110  98.0079  49.1793 0025819  56.8914 303.4770 14.78005257888903
TANDEM-X                
1 36605U 10030A   26160.28753286  .00000776  00000+0  40127-4 0  9997
2 36605  97.4454 168.1075 0001902  90.0350 270.1102 15.19149708885449
CARTOSAT-2B             
1 36795U 10035A   26163.33210722  .00000366  00000+0  57129-4 0  9999
2 36795  97.9960 213.9128 0010771 199.9493 160.1299 14.78655025859135
YAOGAN-10               
1 36834U 10038A   26163.31135689  .00001716  00000+0  20581-3 0  9993
2 36834  97.8983 186.7545 0001679  90.0750  38.4995 14.85334344856488
COSMO-SKYMED 4          
1 37216U 10060A   26163.31294517 -.00000131  00000+0 -98416-5 0  9995
2 37216  97.8889 346.9836 0001388  81.1306 279.0065 14.82147357843846
RESOURCESAT-2           
1 37387U 11015A   26163.23260616  .00000050  00000+0  42953-4 0  9991
2 37387  98.7644 230.7084 0010128 271.4774  88.5243 14.21605370785476
HAIYANG-2A              
1 37781U 11043A   26163.30666634  .00000142  00000+0  19642-3 0  9998
2 37781  99.3395 166.0903 0006196 100.2780 259.9068 13.74458919745984
RASAT                   
1 37791U 11044D   26163.27481086  .00000383  00000+0  74918-4 0  9997
2 37791  98.0570 254.7465 0019843 204.7031 239.9333 14.68161803792461
SRMSAT                  
1 37841U 11058D   26162.51581192  .00000355  00000+0  48954-4 0  9993
2 37841  19.9715  93.7945 0011909 141.4141  27.1536 14.11574372757019
PLEIADES 1A             
1 38012U 11076F   26163.32666765  .00000056  00000+0  21836-4 0  9992
2 38012  98.1976 238.4946 0001587  98.0270 339.9698 14.58567408771289
ZIYUAN 1-02C (ZY 1-02C) 
1 38038U 11079A   26163.28019297  .00000168  00000+0  69528-4 0  9994
2 38038  98.4075 230.6911 0005795 333.2744 114.5575 14.38210316758503
ARIRANG-3 (KOMPSAT-3)   
1 38338U 12025B   26163.31099267  .00000407  00000+0  90118-4 0  9993
2 38338  98.1176 120.8551 0006494 121.7410 238.4425 14.62202224750634
EXACTVIEW-1 (ADS-1B)    
1 38709U 12039C   26163.25548967  .00000099  00000+0  62041-4 0  9990
2 38709  98.9772 280.5344 0010897 180.3666 179.7506 14.24983227722000
SPOT 6                  
1 38755U 12047A   26163.25853419  .00000116  00000+0  34884-4 0  9995
2 38755  98.2121 230.6249 0001432  92.2870 267.8493 14.58559751732334
PLEIADES 1B             
1 39019U 12068A   26163.27744287  .00000100  00000+0  31318-4 0  9998
2 39019  98.1946 238.3964 0001617  94.5524 265.5860 14.58557264720132
GOKTURK 2               
1 39030U 12073A   26163.26606269  .00000691  00000+0  10837-3 0  9990
2 39030  97.6828   0.9446 0001784  58.0355 302.1029 14.75538948723784
LANDSAT 8               
1 39084U 13008A   26163.21780643  .00000342  00000+0  86044-4 0  9999
2 39084  98.2302 233.4118 0001378  93.2241 266.9115 14.57091454697172
SARAL                   
1 39086U 13009A   26163.29242421  .00000082  00000+0  45954-4 0  9993
2 39086  98.5556 349.9217 0000965 336.8817  23.2323 14.32854746694904
GAOFEN-1                
1 39150U 13018A   26163.31929729  .00000025  00000+0  10927-4 0  9990
2 39150  97.9097 235.4858 0015737 283.6283  76.3174 14.76530952707522
VNREDSAT 1              
1 39160U 13021B   26163.23920648  .00000342  00000+0  72496-4 0  9998
2 39160  97.9086 216.8454 0001678  88.7395 271.4001 14.64851298699560
ARIRANG-5 (KOMPSAT-5)   
1 39227U 13042A   26163.31090172  .00001127  00000+0  84911-4 0  9991
2 39227  97.6216 350.0805 0004924 133.2808 226.8830 15.04478336703124
SKYSAT-A                
1 39418U 13066C   26163.09861937  .00002667  00000+0  15424-3 0  9991
2 39418  97.3820 212.6576 0020529 335.9867  24.0405 15.12947558687715
DUBAISAT-2              
1 39419U 13066D   26163.23383517  .00003732  00000+0  23219-3 0  9996
2 39419  97.4563 153.5074 0012773  55.9002 304.3438 15.10148237685644
GPM-CORE                
1 39574U 14009C   26163.28843884  .00012346  00000+0  26949-3 0  9993
2 39574  64.9720 324.5326 0012085 249.6859 110.2983 15.44465202697056
SENTINEL-1A             
1 39634U 14016A   26163.29321115  .00000644  00000+0  14633-3 0  9992
2 39634  98.1781 170.8972 0001445  81.5278 278.6086 14.59200370649300
KAZEOSAT 1              
1 39731U 14024A   26163.30353670  .00000014  00000+0  17215-4 0  9993
2 39731  98.3206 235.8720 0001424  75.6267 284.5081 14.42077790637852
